H1 CPF 01  gfz 2022 07 19 00  7001 tandemx   
H2 1003001  6202 36605    2022 07 19 00 59 42 2022 07 24 00 00 42   120 1 1  0 0 0
H9
10 0 59781  62622.000000  0   -4380783.151    -23402.655  -5323808.844
10 0 59781  62742.000000  0   -3655148.309    197918.121  -5842900.208
10 0 59781  62862.000000  0   -2862378.945    402519.219  -6259907.024
10 0 59781  62982.000000  0   -2016601.073    585805.937  -6567634.062
10 0 59781  63102.000000  0   -1132903.910    743812.104  -6760782.291
10 0 59781  63222.000000  0    -227072.696    873280.528  -6836029.931
10 0 59781  63342.000000  0     684686.728    971726.514  -6792081.964
10 0 59781  63462.000000  0    1586029.656   1037483.216  -6629692.211
10 0 59781  63582.000000  0    2460759.998   1069729.685  -6351653.015
10 0 59781  63702.000000  0    3293116.019   1068500.349  -5962752.101
10 0 59781  63822.000000  0    4068050.433   1034675.519  -5469697.510
10 0 59781  63942.000000  0    4771501.450    969953.070  -4881013.398
10 0 59781  64062.000000  0    5390652.139    876802.219  -4206904.433
10 0 59781  64182.000000  0    5914171.346    758399.618  -3459088.825
10 0 59781  64302.000000  0    6332430.841    618548.523  -2650603.037
10 0 59781  64422.000000  0    6637694.999    461583.185  -1795580.261
10 0 59781  64542.000000  0    6824277.431    292259.747   -909003.851
10 0 59781  64662.000000  0    6888657.411    115636.311     -6441.468
10 0 59781  64782.000000  0    6829555.023    -63054.153    896233.389
10 0 59781  64902.000000  0    6647962.514   -238536.376   1783128.496
10 0 59781  65022.000000  0    6347129.480   -405626.369   2638622.101
10 0 59781  65142.000000  0    5932501.294   -559362.916   3447647.338
10 0 59781  65262.000000  0    5411613.125   -695133.165   4195963.491
10 0 59781  65382.000000  0    4793945.661   -808789.206   4870410.753
10 0 59781  65502.000000  0    4090741.752   -896753.910   5459143.486
10 0 59781  65622.000000  0    3314791.133   -956111.000   5951835.751
10 0 59781  65742.000000  0    2480189.462   -984679.836   6339858.093
10 0 59781  65862.000000  0    1602076.270   -981072.839   6616422.894
10 0 59781  65982.000000  0     696356.034   -944734.761   6776698.421
10 0 59781  66102.000000  0    -220592.864   -875962.213   6817887.439
10 0 59781  66222.000000  0   -1132214.152   -775904.029   6739271.633
10 0 59781  66342.000000  0   -2022071.214   -646542.215   6542222.866
10 0 59781  66462.000000  0   -2874141.841   -490653.337   6230180.662
10 0 59781  66582.000000  0   -3673106.635   -311751.293   5808597.189
10 0 59781  66702.000000  0   -4404627.672   -114012.395   5284848.486
10 0 59781  66822.000000  0   -5055611.815     97816.070   4668111.396
10 0 59781  66942.000000  0   -5614452.833    318521.807   3969207.585
10 0 59781  67062.000000  0   -6071247.178    542546.652   3200416.675
10 0 59781  67182.000000  0   -6417979.163    764116.122   2375262.320
10 0 59781  67302.000000  0   -6648671.492    977376.616   1508272.513
10 0 59781  67422.000000  0   -6759496.691   1176536.304    614719.166
10 0 59781  67542.000000  0   -6748845.988   1356006.848   -289658.814
10 0 59781  67662.000000  0   -6617352.267   1510541.962  -1188942.178
10 0 59781  67782.000000  0   -6367867.530   1635368.614  -2067319.868
10 0 59781  67902.000000  0   -6005397.505   1726309.152  -2909374.273
10 0 59781  68022.000000  0   -5536992.428   1779890.413  -3700358.630
10 0 59781  68142.000000  0   -4971597.593   1793435.889  -4426457.367
10 0 59781  68262.000000  0   -4319870.021   1765140.355  -5075024.738
10 0 59781  68382.000000  0   -3593966.130   1694125.252  -5634798.276
10 0 59781  68502.000000  0   -2807306.932   1580474.159  -6096084.590
10 0 59781  68622.000000  0   -1974325.119   1425247.522  -6450916.931
10 0 59781  68742.000000  0   -1110197.475   1230477.275  -6693181.149
10 0 59781  68862.000000  0    -230570.559    999140.871  -6818709.213
10 0 59781  68982.000000  0     648716.324    735116.351  -6825342.268
10 0 59781  69102.000000  0    1511908.546    443118.813  -6712965.745
10 0 59781  69222.000000  0    2343613.238    128617.914  -6483511.636
10 0 59781  69342.000000  0    3129067.646   -202261.309  -6140928.654
10 0 59781  69462.000000  0    3854398.095   -542853.405  -5691121.151
10 0 59781  69582.000000  0    4506863.024   -886081.702  -5141856.854
10 0 59781  69702.000000  0    5075080.285  -1224600.180  -4502645.504
10 0 59781  69822.000000  0    5549233.074  -1550945.726  -3784585.061
10 0 59781  69942.000000  0    5921249.188  -1857697.247  -3000178.223
10 0 59781  70062.000000  0    6184949.973  -2137638.966  -2163121.037
10 0 59781  70182.000000  0    6336164.474  -2383924.126  -1288066.265
10 0 59781  70302.000000  0    6372805.451  -2590234.518   -390366.099
10 0 59781  70422.000000  0    6294905.139  -2750932.361    514201.437
10 0 59781  70542.000000  0    6104608.860  -2861200.046   1409716.840
10 0 59781  70662.000000  0    5806125.868  -2917164.114   2280408.892
10 0 59781  70782.000000  0    5405637.047  -2916000.319   3110941.278
10 0 59781  70902.000000  0    4911163.737  -2856016.289   3886690.754
10 0 59781  71022.000000  0    4332400.670  -2736709.480   4594008.704
10 0 59781  71142.000000  0    3680520.042  -2558801.498   5220463.907
10 0 59781  71262.000000  0    2967946.769  -2324246.565   5755061.757
10 0 59781  71382.000000  0    2208113.783  -2036213.118   6188433.183
10 0 59781  71502.000000  0    1415203.338  -1699041.066   6512993.604
10 0 59781  71622.000000  0     603878.418  -1318175.236   6723069.844
10 0 59781  71742.000000  0    -210990.551   -900075.917   6814993.307
10 0 59781  71862.000000  0   -1014598.051   -452108.154   6787159.241
10 0 59781  71982.000000  0   -1792471.187     17587.807   6640052.667
10 0 59781  72102.000000  0   -2530729.238    500244.056   6376240.560
10 0 59781  72222.000000  0   -3216331.183    986627.829   6000330.347
10 0 59781  72342.000000  0   -3837307.802   1467216.953   5518894.970
10 0 59781  72462.000000  0   -4382975.205   1932385.432   4940364.618
10 0 59781  72582.000000  0   -4844125.581   2372596.236   4274884.858
10 0 59781  72702.000000  0   -5213189.654   2778597.552   3534142.246
10 0 59781  72822.000000  0   -5484367.959   3141617.302   2731161.182
10 0 59781  72942.000000  0   -5653728.647   3453552.480   1880075.168
10 0 59781  73062.000000  0   -5719269.629   3707149.525    995874.690
10 0 59781  73182.000000  0   -5680940.506   3896169.111     94135.716
10 0 59781  73302.000000  0   -5540625.112   4015531.478   -809262.422
10 0 59781  73422.000000  0   -5302085.600   4061439.453  -1698425.541
10 0 59781  73542.000000  0   -4970868.074   4031475.530  -2557734.199
10 0 59781  73662.000000  0   -4554171.450   3924669.243  -3372125.121
10 0 59781  73782.000000  0   -4060685.410   3741534.504  -4127358.610
10 0 59781  73902.000000  0   -3500402.198   3484076.924  -4810266.155
10 0 59781  74022.000000  0   -2884407.332   3155771.499  -5408974.647
10 0 59781  74142.000000  0   -2224656.442   2761512.350  -5913103.949
10 0 59781  74262.000000  0   -1533740.220   2307535.693  -6313937.802
10 0 59781  74382.000000  0    -824642.906   1801316.651  -6604562.593
10 0 59781  74502.000000  0    -110500.907   1251444.571  -6779975.004
10 0 59781  74622.000000  0     595635.517    667477.640  -6837158.596
10 0 59781  74742.000000  0    1281034.635     59780.064  -6775131.437
10 0 59781  74862.000000  0    1933508.507   -560658.375  -6594960.821
10 0 59781  74982.000000  0    2541624.047  -1182415.856  -6299746.018
10 0 59781  75102.000000  0    3094900.225  -1793843.406  -5894571.023
10 0 59781  75222.000000  0    3583987.457  -2383277.637  -5386426.532
10 0 59781  75342.000000  0    4000829.042  -2939261.388  -4784101.657
10 0 59781  75462.000000  0    4338798.160  -3450766.702  -4098041.490
10 0 59781  75582.000000  0    4592808.137  -3907414.052  -3340176.104
10 0 59781  75702.000000  0    4759396.249  -4299685.625  -2523721.858
10 0 59781  75822.000000  0    4836776.861  -4619127.284  -1662955.324
10 0 59781  75942.000000  0    4824862.188  -4858534.350   -772964.539
10 0 59781  76062.000000  0    4725248.191  -5012116.064    130619.187
10 0 59781  76182.000000  0    4541166.026  -5075632.964   1031902.194
10 0 59781  76302.000000  0    4277400.842  -5046504.141   1915016.835
10 0 59781  76422.000000  0    3940177.520  -4923880.415   2764409.828
10 0 59781  76542.000000  0    3537018.937  -4708683.360   3565123.755
10 0 59781  76662.000000  0    3076578.901  -4403607.735   4303067.148
10 0 59781  76782.000000  0    2568454.742  -4013087.532   4965266.055
10 0 59781  76902.000000  0    2022984.663  -3543227.374   5540092.692
10 0 59781  77022.000000  0    1451034.347  -3001701.407   6017468.013
10 0 59781  77142.000000  0     863777.469  -2397621.144   6389033.624
10 0 59781  77262.000000  0     272475.687  -1741377.406   6648291.767
10 0 59781  77382.000000  0    -311737.682  -1044458.586   6790712.467
10 0 59781  77502.000000  0    -878066.183   -319247.550   6813808.479
10 0 59781  77622.000000  0   -1416248.809    421198.950   6717175.740
10 0 59781  77742.000000  0   -1916745.374   1163384.903   6502499.863
10 0 59781  77862.000000  0   -2370905.536   1893620.118   6173528.540
10 0 59781  77982.000000  0   -2771119.177   2598272.141   5736010.247
10 0 59781  78102.000000  0   -3110945.725   3264021.815   5197600.051
10 0 59781  78222.000000  0   -3385221.297   3878117.583   4567732.063
10 0 59781  78342.000000  0   -3590140.462   4428624.479   3857459.611
10 0 59781  78462.000000  0   -3723310.806   4904662.337   3079264.612
10 0 59781  78582.000000  0   -3783778.831   5296627.874   2246838.493
10 0 59781  78702.000000  0   -3772025.914   5596393.797   1374838.228
10 0 59781  78822.000000  0   -3689934.767   5797480.905    478624.082
10 0 59781  78942.000000  0   -3540728.301   5895200.777   -426017.685
10 0 59781  79062.000000  0   -3328879.777   5886762.222  -1323163.251
99
